STARLINK-2535
1 18295C 21036V   21326.17377537  .00005663  00000-0  37946-3 0  3260
2 18295  53.0529 282.9678 0001914  61.8948 265.8751 15.06387776    12
